219P/LINEAR,e,11.5291,231.0027,107.3512,3.651208,0.1412698,0.35344773,164.1231,04/28.0/2020,2000,g 11.0,4.0
# From MPC105242
220P/McNaught,e,8.1279,150.1100,180.5575,3.115517,0.1792292,0.50181914,319.3719,04/28.0/2020,2000,g 15.0,4.0
# From MPC 93589
221P/LINEAR,e,11.4262,229.7271,40.0297,3.458044,0.1532704,0.49283007,268.2044,04/28.0/2020,2000,g 14.5,4.0
# From MPC 92277
222P/LINEAR,e,5.0946,6.8004,346.2261,2.899374,0.1996401,0.71436249,65.4674,04/28.0/2020,2000,g 20.0,4.0
# From MPEC 2020-H67
223P/Skiff,e,27.0155,346.7776,37.8240,4.159183,0.1161962,0.41563495,53.0701,04/28.0/2020,2000,g 12.0,4.0
# From MPC 75727
224P/LINEAR-NEAT,e,13.3296,40.3739,16.8113,3.436273,0.1547293,0.40882246,223.1133,04/28.0/2020,2000,g 15.5,4.0
# From MPC 75727
225P/LINEAR,e,21.3465,14.1826,3.8695,3.651250,0.1412673,0.63753461,190.7853,04/28.0/2020,2000,g 18.0,4.0
# From MPC106349
226P/Pigott-LINEAR-Kowalski,e,44.0057,54.0057,341.0581,3.768019,0.1347518,0.52813633,179.5100,04/28.0/2020,2000,g 12.5,4.0
# From MPC102956
227P/Catalina-LINEAR,e,6.5102,49.5014,90.0880,3.571755,0.1460097,0.50518535,151.7705,04/28.0/2020,2000,g 16.5,2.0
# From MPEC 2020-H67
228P/LINEAR,e,7.9097,30.9872,115.2995,4.174089,0.1155744,0.17686343,5.5856,04/28.0/2020,2000,g 14.5,2.0
# From MPC106349
229P/Gibbs,e,26.0838,157.8973,223.9902,3.931775,0.1264215,0.37640804,135.7039,04/28.0/2020,2000,g 13.0,4.0
# From MPC110497
230P/LINEAR,e,15.5174,107.0193,313.7576,3.444870,0.1541505,0.54971180,253.8486,04/28.0/2020,2000,g 13.0,4.0
# From MPC114608
231P/LINEAR-NEAT,e,12.3342,133.0257,42.8409,4.017958,0.1223759,0.24762007,38.9578,04/28.0/2020,2000,g 14.5,2.0
# From MPC112394
232P/Hill,e,14.6307,56.0226,53.5013,4.483123,0.1038325,0.33434276,40.2542,04/28.0/2020,2000,g 11.5,4.0
# From MPC 92986
233P/La Sagra,e,11.2841,74.9269,27.0718,3.030243,0.1868477,0.41173087,330.7210,04/28.0/2020,2000,g 15.0,4.0
# From MPC110497
234P/LINEAR,e,11.5235,179.5703,357.4071,3.803337,0.1328791,0.25403533,141.4496,04/28.0/2020,2000,g 12.0,4.0
# From MPC110497
235P/LINEAR,e,8.8843,203.9685,333.5557,3.985601,0.1238692,0.31920411,95.7839,04/28.0/2020,2000,g 12.0,4.0
# From MPC107688
236P/LINEAR,e,16.3337,245.6585,119.1988,3.731502,0.1367347,0.50835082,121.6471,04/28.0/2020,2000,g 14.0,4.0
# From MPC109593
237P/LINEAR,e,14.0218,245.4176,25.1650,3.512412,0.1497255,0.43475104,193.6695,04/28.0/2020,2000,g 14.5,2.0
# From MPC107688
238P/Read,e,1.2645,51.6431,324.7120,3.163270,0.1751861,0.25231862,225.0889,04/28.0/2020,2000,g 14.5,4.0
# From MPC112394
239P/LINEAR,e,11.3035,255.9123,220.4286,4.471224,0.1042472,0.63073995,49.4007,04/28.0/2020,2000,g 17.5,2.0
# From MPC109593
240P/NEAT,e,23.5047,74.9240,352.0164,3.868694,0.1295262,0.44868361,92.4041,04/28.0/2020,2000,g 11.0,4.0
# From MPC 75729
241P/LINEAR,e,21.0910,305.4818,111.1890,4.937340,0.0898389,0.61082257,319.2763,04/28.0/2020,2000,g 13.5,4.0
# From MPC 81861
242P/Spahr,e,32.4804,180.4906,246.2655,5.476919,0.0768953,0.27787590,228.2368,04/28.0/2020,2000,g  8.0,4.0
# From MPC111774
243P/NEAT,e,7.6414,87.6565,283.5280,3.831691,0.1314070,0.35969333,80.2844,04/28.0/2020,2000,g 12.5,4.0
# From MPC 88331
244P/Scotti,e,2.2591,353.9905,92.8606,4.895495,0.0909932,0.19824342,275.1845,04/28.0/2020,2000,g  9.0,4.0
# From MPC111774
245P/WISE,e,21.1968,316.6548,316.7993,4.042063,0.1212829,0.45768593,98.1389,04/28.0/2020,2000,g 14.0,4.0
# From MPEC 2020-H67
246P/NEAT,e,15.9871,78.7485,176.2483,4.016031,0.1224640,0.28679466,323.1864,04/28.0/2020,2000,g 10.5,4.0
# From MPC112394
247P/LINEAR,e,13.6573,54.0125,47.4832,3.970495,0.1245768,0.62462247,63.9082,04/28.0/2020,2000,g 16.5,2.0
# From MPC 75730
248P/Gibbs,e,6.3463,207.7458,209.9274,5.990389,0.0672236,0.63781064,227.6236,04/28.0/2020,2000,g 14.0,4.0
# From MPEC 2020-H67
249P/LINEAR,e,8.3970,239.1777,65.6087,2.761573,0.2147678,0.82012345,346.5772,04/28.0/2020,2000,g 15.5,4.0
# From MPC110497
250P/Larson,e,13.2536,73.6743,45.7972,3.749964,0.1357261,0.40502203,110.6593,04/28.0/2020,2000,g 14.5,4.0
# From MPC104795
251P/LINEAR,e,23.4083,219.4037,31.2516,3.509556,0.1499084,0.50560157,152.3690,04/28.0/2020,2000,g 16.5,2.0
# From MPC102956
252P/LINEAR,e,10.4116,190.9549,343.3212,3.049186,0.1851093,0.67205674,278.7493,04/28.0/2020,2000,g 17.5,4.0
# From MPC112394
253P/PANSTARRS,e,4.9421,146.8747,230.6567,3.468253,0.1525942,0.41330128,110.0609,04/28.0/2020,2000,g 14.5,4.0
# From MPC 81473
254P/McNaught,e,32.5687,129.1718,219.4474,4.617860,0.0993214,0.32066776,344.6579,04/28.0/2020,2000,g 11.0,4.0
# From NK 2214
255P/Levy,e,16.5404,278.2894,183.3902,2.915946,0.1979406,0.73345640,193.9541,04/28.0/2020,2000,g  9.0,4.0
# From MPC 84027
256P/LINEAR,e,27.6374,81.3496,124.3149,4.635911,0.0987419,0.41851739,256.5031,04/28.0/2020,2000,g 14.0,2.0
# From MPC114608
257P/Catalina,e,20.2215,207.7569,117.6441,3.764556,0.1349378,0.43091590,341.6794,04/28.0/2020,2000,g 11.5,4.0
# From MPC 79655
258P/PANSTARRS,e,6.7458,126.2473,26.1213,4.402424,0.1067004,0.20917826,354.3841,04/28.0/2020,2000,g 13.0,4.0
# From MPC106349
259P/Garradd,e,15.8878,51.4662,257.5550,2.731204,0.2183599,0.33837342,217.7729,04/28.0/2020,2000,g 15.5,4.0
# From MPEC 2020-H67
260P/McNaught,e,15.0522,349.3499,18.3981,3.622046,0.1429793,0.60887028,33.0327,04/28.0/2020,2000,g 13.5,4.0
# From MPEC 2019-TG9
261P/Larson,e,6.0761,291.1621,67.1248,3.489228,0.1512203,0.42296682,47.5264,04/28.0/2020,2000,g 14.0,4.0
# From MPC 82322
262P/McNaught-Russell,e,29.1582,217.9120,170.9989,6.877246,0.0546490,0.81494831,147.8936,04/28.0/2020,2000,g 13.5,4.0
# From MPC 89018
263P/Gibbs,e,11.5505,105.8173,34.4332,3.055486,0.1845370,0.58941002,173.5614,04/28.0/2020,2000,g  9.0,4.0
# From MPC114608
264P/Larsen,e,25.1395,220.8818,346.6731,3.897821,0.1280770,0.37440957,34.1890,04/28.0/2020,2000,g 13.0,4.0
# From MPC 79870
265P/LINEAR,e,14.3593,342.9644,33.4110,4.254192,0.1123255,0.64782681,327.7614,04/28.0/2020,2000,g 14.5,4.0
# From MPEC 2019-TG9
266P/Christensen,e,3.4258,5.0033,97.8554,3.535520,0.1482600,0.33949336,1.2545,04/28.0/2020,2000,g 12.5,4.0
# From MPC114608
267P/LONEOS,e,6.1375,228.6710,114.0837,3.212230,0.1711962,0.61393686,110.5132,04/28.0/2020,2000,g 19.5,4.0
# From MPC 92277
268P/Bernardi,e,16.1347,127.5828,0.1016,4.551995,0.1014849,0.47084697,185.6422,04/28.0/2020,2000,g 14.0,4.0
# From MPC104795
269P/Jedicke,e,7.0700,241.7023,225.9982,7.081900,0.0522973,0.43057529,106.4448,04/28.0/2020,2000,g 10.0,4.0
# From MPC 88332
270P/Gehrels,e,2.9171,222.9605,209.9382,6.670150,0.0572138,0.46681294,143.9889,04/28.0/2020,2000,g  8.0,4.0
# From MPC 92277
271P/van Houten-Lemmon,e,6.8647,9.2948,36.4936,7.049933,0.0526534,0.39313596,130.8071,04/28.0/2020,2000,g 11.0,4.0
# From MPC 81862
272P/NEAT,e,18.0762,109.4648,28.0075,4.453612,0.1048662,0.45415713,275.0070,04/28.0/2020,2000,g 16.0,2.0
# From MPC 82723
273P/Pons-Gambart,e,136.7444,320.4003,20.2919,31.69017,0.0055248,0.97403922,0.0000,12/16.8998/2012,2000,g 11.5,4.0
# From MPC 88332
274P/Tombaugh-Tenagra,e,15.8177,81.3358,38.5281,4.370342,0.1078775,0.43869270,283.3197,04/28.0/2020,2000,g 13.0,4.0
# From MPC 81862
275P/Hermann,e,21.2868,348.7567,174.1123,5.770876,0.0710954,0.71264778,190.7032,04/28.0/2020,2000,g 17.0,4.0
# From MPC114609
276P/Vorobjov,e,14.8229,211.4630,200.0038,5.310475,0.0805386,0.26740608,223.4377,04/28.0/2020,2000,g 11.5,4.0
# From MPC105243
277P/LINEAR,e,16.7791,276.3448,152.3154,3.851462,0.1303964,0.50547490,327.8954,04/28.0/2020,2000,g 14.0,4.0
# From MPEC 2020-H67
278P/McNaught,e,6.6852,15.4496,238.0777,3.692980,0.1388796,0.43485339,340.9669,04/28.0/2020,2000,g 14.0,4.0
# From MPC100285
279P/La Sagra,e,5.0511,346.2248,5.7540,3.575952,0.1457527,0.39791991,201.5701,04/28.0/2020,2000,g 14.0,4.0
# From MPC 89013
280P/Larsen,e,11.7741,131.3979,104.7983,4.528790,0.1022659,0.41812152,237.9970,04/28.0/2020,2000,g 12.5,4.0
# From MPC 83145
281P/MOSS,e,4.7198,87.1708,26.9247,4.868704,0.0917453,0.17151313,267.1606,04/28.0/2020,2000,g 11.0,4.0
# From MPEC 2020-H67
282P/,e,5.8097,9.3011,217.4952,4.245339,0.1126771,0.18936115,298.7294,04/28.0/2020,2000,g 13.5,2.0
# From MPEC 2013-M31
283P/Spacewatch,e,14.4538,161.1411,22.2781,4.139103,0.1170428,0.48508706,301.7078,04/28.0/2020,2000,g  9.0,4.0
# From MPEC 2020-H67
284P/McNaught,e,11.8584,144.2807,202.6640,3.674816,0.1399106,0.37583985,289.5672,04/28.0/2020,2000,g 13.0,4.0
# From MPC 85339
285P/LINEAR,e,25.0256,185.4843,178.4044,4.509131,0.1029354,0.61795659,258.1111,04/28.0/2020,2000,g 15.0,4.0
# From MPC 90771
286P/Christensen,e,17.0450,283.9656,24.7443,4.111593,0.1182195,0.42518044,271.9856,04/28.0/2020,2000,g 14.0,4.0
# From MPC 96868
287P/Christensen,e,16.3182,139.0388,188.8180,4.168256,0.1158171,0.27045260,225.4025,04/28.0/2020,2000,g 13.5,4.0
# From MPEC 2020-H67
288P/,e,3.2403,83.1872,280.7703,3.047202,0.1852901,0.20135890,234.9540,04/28.0/2020,2000,g 16.0,2.0
# From MPC118844
289P/Blanpain,e,5.8939,68.8900,9.8896,3.048366,0.1851839,0.68542938,23.8896,04/28.0/2020,2000,g 20.0,4.0
# From MPC 95214
290P/Jager,e,19.8973,302.8161,181.5502,6.144484,0.0647107,0.64571256,144.8490,04/28.0/2020,2000,g 10.5,4.0
# From MPC 89314
291P/NEAT,e,6.3345,238.2391,174.0817,4.507260,0.1029995,0.43684569,246.3149,04/28.0/2020,2000,g 13.0,4.0
# From MPC115887
292P/Li,e,24.2520,91.0025,319.4751,6.110914,0.0652446,0.58750465,148.7756,04/28.0/2020,2000,g 12.5,4.0
# From MPC 92278
293P/Spacewatch,e,9.0571,78.4115,41.0903,3.643155,0.1417384,0.41818450,326.6405,04/28.0/2020,2000,g 14.5,4.0
# From MPC 89013
294P/LINEAR,e,18.2157,312.5949,235.5455,3.205816,0.1717102,0.59431514,25.8008,04/28.0/2020,2000,g 15.5,4.0
# From MPC 93589
295P/LINEAR,e,21.0729,7.4156,72.9699,5.306551,0.0806279,0.61599393,176.0193,04/28.0/2020,2000,g 12.0,4.0
# From MPEC 2020-H67
296P/Garradd,e,25.2351,263.6405,350.1207,3.496671,0.1507377,0.47850945,338.4571,04/28.0/2020,2000,g 14.0,4.0
# From MPC102956
297P/Beshore,e,10.3286,97.6612,132.4612,3.443215,0.1542616,0.31935869,318.3899,04/28.0/2020,2000,g 15.0,4.0
# From MPC114609
